start=new Date('2023-01-03T00:00:00.000Z').valueOf();
sats=[{"ELEMENT_SET_NO":"999","LAUNCH_DATE":"2022-10-05","SITE":"AFWTR","GP_ID":"222066858","PERIAPSIS":"538.633","COUNTRY_CODE":"US","EPHEMERIS_TYPE":"0","OBJECT_TYPE":"PAYLOAD","INCLINATION":"53.2166","TIME_SYSTEM":"UTC","RCS_SIZE":"LARGE","RA_OF_ASC_NODE":"35.1737","REV_AT_EPOCH":"1398","MEAN_MOTION_DDOT":"0.0000000000000","BSTAR":"-0.00009246900000","TLE_LINE2":"2 53977  53.2166  35.1737 0001610  49.3367 310.7765 15.08839635 13980","ECCENTRICITY":"0.00016100","MEAN_MOTION_DOT":"-0.00001759","ARG_OF_PERICENTER":"49.3367","TLE_LINE1":"1 53977U 22125P   23002.78934800 -.00001759  00000-0 -92469-4 0  9997","APOAPSIS":"540.860","SEMIMAJOR_AXIS":"6917.882","FILE":"3729873","MEAN_ELEMENT_THEORY":"SGP4","REF_FRAME":"TEME","MEAN_ANOMALY":"310.7765","OBJECT_ID":"2022-125P","CENTER_NAME":"EARTH","CLASSIFICATION_TYPE":"U","EPOCH":"2023-01-02T18:56:39.667200","MEAN_MOTION":"15.08839635","NORAD_CAT_ID":"53977","DECAY_DATE":null,"PERIOD":"95.438","OBJECT_NAME":"STARLINK-5094"},{"LAUNCH_DATE":"2022-10-05","ELEMENT_SET_NO":"999","SITE":"AFWTR","COUNTRY_CODE":"US","PERIAPSIS":"537.986","GP_ID":"222033114","INCLINATION":"53.2194","OBJECT_TYPE":"PAYLOAD","EPHEMERIS_TYPE":"0","RCS_SIZE":"LARGE","TIME_SYSTEM":"UTC","MEAN_MOTION_DDOT":"0.0000000000000","REV_AT_EPOCH":"1392","RA_OF_ASC_NODE":"36.8507","BSTAR":"-0.00011332000000","MEAN_MOTION_DOT":"-0.00002092","ECCENTRICITY":"0.00025010","TLE_LINE2":"2 53978  53.2194  36.8507 0002501  23.4591 336.6515 15.08849457 13924","TLE_LINE1":"1 53978U 22125Q   23002.37347486 -.00002092  00000-0 -11332-3 0  9991","ARG_OF_PERICENTER":"23.4591","FILE":"3729583","MEAN_ELEMENT_THEORY":"SGP4","SEMIMAJOR_AXIS":"6917.851","APOAPSIS":"541.447","REF_FRAME":"TEME","MEAN_ANOMALY":"336.6515","OBJECT_ID":"2022-125Q","CENTER_NAME":"EARTH","DECAY_DATE":null,"NORAD_CAT_ID":"53978","EPOCH":"2023-01-02T08:57:48.227904","MEAN_MOTION":"15.08849457","CLASSIFICATION_TYPE":"U","OBJECT_NAME":"STARLINK-5148","PERIOD":"95.437"},{"ELEMENT_SET_NO":"999","LAUNCH_DATE":"2022-10-05","SITE":"AFWTR","GP_ID":"222067309","PERIAPSIS":"538.607","COUNTRY_CODE":"US","EPHEMERIS_TYPE":"0","OBJECT_TYPE":"PAYLOAD","INCLINATION":"53.2173","TIME_SYSTEM":"UTC","RCS_SIZE":"LARGE","RA_OF_ASC_NODE":"35.1075","REV_AT_EPOCH":"1398","MEAN_MOTION_DDOT":"0.0000000000000","BSTAR":"-0.00009536800000","TLE_LINE2":"2 53979  53.2173  35.1075 0001632  51.7932 308.3207 15.08843030 13982","ECCENTRICITY":"0.00016320","MEAN_MOTION_DOT":"-0.00001806","ARG_OF_PERICENTER":"51.7932","TLE_LINE1":"1 53979U 22125R   23002.77829310 -.00001806  00000-0 -95368-4 0  9991","APOAPSIS":"540.865","SEMIMAJOR_AXIS":"6917.871","MEAN_ELEMENT_THEORY":"SGP4","FILE":"3729873","REF_FRAME":"TEME","MEAN_ANOMALY":"308.3207","OBJECT_ID":"2022-125R","CENTER_NAME":"EARTH","CLASSIFICATION_TYPE":"U","MEAN_MOTION":"15.08843030","EPOCH":"2023-01-02T18:40:44.523840","DECAY_DATE":null,"NORAD_CAT_ID":"53979","PERIOD":"95.437","OBJECT_NAME":"STARLINK-5123"},{"MEAN_ANOMALY":"331.2446","OBJECT_ID":"2022-125S","CENTER_NAME":"EARTH","EPOCH":"2023-01-02T21:24:58.726368","MEAN_MOTION":"15.08844469","CLASSIFICATION_TYPE":"U","NORAD_CAT_ID":"53980","DECAY_DATE":null,"PERIOD":"95.437","OBJECT_NAME":"STARLINK-5133","ARG_OF_PERICENTER":"28.8687","TLE_LINE1":"1 53980U 22125S   23002.89234637  .00000070  00000-0  22500-4 0  9996","APOAPSIS":"541.498","SEMIMAJOR_AXIS":"6917.867","MEAN_ELEMENT_THEORY":"SGP4","FILE":"3729873","REF_FRAME":"TEME","TIME_SYSTEM":"UTC","RCS_SIZE":"LARGE","RA_OF_ASC_NODE":"34.4095","MEAN_MOTION_DDOT":"0.0000000000000","REV_AT_EPOCH":"1400","BSTAR":"0.00002250000000","TLE_LINE2":"2 53980  53.2184  34.4095 0002553  28.8687 331.2446 15.08844469 14006","ECCENTRICITY":"0.00025530","MEAN_MOTION_DOT":"0.00000070","ELEMENT_SET_NO":"999","LAUNCH_DATE":"2022-10-05","SITE":"AFWTR","GP_ID":"222067535","PERIAPSIS":"537.966","COUNTRY_CODE":"US","EPHEMERIS_TYPE":"0","OBJECT_TYPE":"PAYLOAD","INCLINATION":"53.2184"},{"MEAN_ELEMENT_THEORY":"SGP4","FILE":"3729873","SEMIMAJOR_AXIS":"6914.911","APOAPSIS":"538.089","REF_FRAME":"TEME","TLE_LINE1":"1 53981U 22125T   23002.91667824 -.00884047  00000-0 -58286-1 0  9991","ARG_OF_PERICENTER":"39.9336","DECAY_DATE":null,"NORAD_CAT_ID":"53981","EPOCH":"2023-01-02T22:00:00.999936","MEAN_MOTION":"15.09812117","CLASSIFICATION_TYPE":"U","OBJECT_NAME":"STARLINK-5149","PERIOD":"95.376","MEAN_ANOMALY":"119.1228","OBJECT_ID":"2022-125T","CENTER_NAME":"EARTH","COUNTRY_CODE":"US","PERIAPSIS":"535.462","GP_ID":"222066408","INCLINATION":"53.2172","OBJECT_TYPE":"PAYLOAD","EPHEMERIS_TYPE":"0","LAUNCH_DATE":"2022-10-05","ELEMENT_SET_NO":"999","SITE":"AFWTR","BSTAR":"-0.05828600000000","MEAN_MOTION_DOT":"-0.00884047","ECCENTRICITY":"0.00018990","TLE_LINE2":"2 53981  53.2172  19.2933 0001899  39.9336 119.1228 15.09812117  1308","RCS_SIZE":"LARGE","TIME_SYSTEM":"UTC","REV_AT_EPOCH":"130","MEAN_MOTION_DDOT":"0.0000000000000","RA_OF_ASC_NODE":"19.2933"},{"SITE":"AFWTR","ELEMENT_SET_NO":"999","LAUNCH_DATE":"2022-10-05","EPHEMERIS_TYPE":"0","OBJECT_TYPE":"PAYLOAD","INCLINATION":"53.2177","GP_ID":"222066634","PERIAPSIS":"538.604","COUNTRY_CODE":"US","RA_OF_ASC_NODE":"30.1637","REV_AT_EPOCH":"1404","MEAN_MOTION_DDOT":"0.0000000000000","TIME_SYSTEM":"UTC","RCS_SIZE":"LARGE","TLE_LINE2":"2 53982  53.2177  30.1637 0001646  45.8779 314.2348 15.08840967 14043","ECCENTRICITY":"0.00016460","MEAN_MOTION_DOT":"-0.00001703","BSTAR":"-0.00008894200000","ARG_OF_PERICENTER":"45.8779","TLE_LINE1":"1 53982U 22125U   23002.78332355 -.00001703  00000-0 -88942-4 0  9990","REF_FRAME":"TEME","SEMIMAJOR_AXIS":"6917.877","APOAPSIS":"540.881","FILE":"3729873","MEAN_ELEMENT_THEORY":"SGP4","CENTER_NAME":"EARTH","OBJECT_ID":"2022-125U","MEAN_ANOMALY":"314.2348","PERIOD":"95.437","OBJECT_NAME":"STARLINK-5120","EPOCH":"2023-01-02T18:47:59.154720","MEAN_MOTION":"15.08840967","CLASSIFICATION_TYPE":"U","NORAD_CAT_ID":"53982","DECAY_DATE":null},{"MEAN_ANOMALY":"50.4956","OBJECT_ID":"2022-125V","CENTER_NAME":"EARTH","CLASSIFICATION_TYPE":"U","EPOCH":"2023-01-02T22:00:00.999936","MEAN_MOTION":"15.09258499","DECAY_DATE":null,"NORAD_CAT_ID":"53983","PERIOD":"95.411","OBJECT_NAME":"STARLINK-5103","TLE_LINE1":"1 53983U 22125V   23002.91667824 -.00488706  00000-0 -32139-1 0  9994","ARG_OF_PERICENTER":"69.1865","FILE":"3729873","MEAN_ELEMENT_THEORY":"SGP4","APOAPSIS":"539.552","SEMIMAJOR_AXIS":"6916.602","REF_FRAME":"TEME","TIME_SYSTEM":"UTC","RCS_SIZE":"LARGE","RA_OF_ASC_NODE":"19.3505","REV_AT_EPOCH":"130","MEAN_MOTION_DDOT":"0.0000000000000","BSTAR":"-0.03213900000000","TLE_LINE2":"2 53983  53.2167  19.3505 0001569  69.1865  50.4956 15.09258499  1308","MEAN_MOTION_DOT":"-0.00488706","ECCENTRICITY":"0.00015690","ELEMENT_SET_NO":"999","LAUNCH_DATE":"2022-10-05","SITE":"AFWTR","GP_ID":"222067760","COUNTRY_CODE":"US","PERIAPSIS":"537.381","OBJECT_TYPE":"PAYLOAD","EPHEMERIS_TYPE":"0","INCLINATION":"53.2167"},{"MEAN_MOTION_DDOT":"0.0000000000000","REV_AT_EPOCH":"1405","RA_OF_ASC_NODE":"30.2269","RCS_SIZE":"LARGE","TIME_SYSTEM":"UTC","ECCENTRICITY":"0.00021740","MEAN_MOTION_DOT":"0.00004048","TLE_LINE2":"2 53984  53.2177  30.2269 0002174  49.7632 310.3550 15.08839381 14056","BSTAR":"0.00027230000000","SITE":"AFWTR","LAUNCH_DATE":"2022-10-05","ELEMENT_SET_NO":"999","INCLINATION":"53.2177","EPHEMERIS_TYPE":"0","OBJECT_TYPE":"PAYLOAD","PERIAPSIS":"538.243","COUNTRY_CODE":"US","GP_ID":"222067985","CENTER_NAME":"EARTH","MEAN_ANOMALY":"310.3550","OBJECT_ID":"2022-125W","OBJECT_NAME":"STARLINK-5142","PERIOD":"95.438","NORAD_CAT_ID":"53984","DECAY_DATE":null,"EPOCH":"2023-01-02T19:03:54.629856","MEAN_MOTION":"15.08839381","CLASSIFICATION_TYPE":"U","ARG_OF_PERICENTER":"49.7632","TLE_LINE1":"1 53984U 22125W   23002.79438229  .00004048  00000-0  27230-3 0  9995","REF_FRAME":"TEME","SEMIMAJOR_AXIS":"6917.882","APOAPSIS":"541.251","MEAN_ELEMENT_THEORY":"SGP4","FILE":"3729873"},{"CENTER_NAME":"EARTH","MEAN_ANOMALY":"286.8471","OBJECT_ID":"2022-125X","PERIOD":"95.437","OBJECT_NAME":"STARLINK-5147","CLASSIFICATION_TYPE":"U","MEAN_MOTION":"15.08849556","EPOCH":"2023-01-02T19:14:30.746400","NORAD_CAT_ID":"53985","DECAY_DATE":null,"ARG_OF_PERICENTER":"73.2690","TLE_LINE1":"1 53985U 22125X   23002.80174475 -.00000075  00000-0  13353-4 0  9997","REF_FRAME":"TEME","APOAPSIS":"540.782","SEMIMAJOR_AXIS":"6917.851","FILE":"3729873","MEAN_ELEMENT_THEORY":"SGP4","RA_OF_ASC_NODE":"30.2674","REV_AT_EPOCH":"1405","MEAN_MOTION_DDOT":"0.0000000000000","TIME_SYSTEM":"UTC","RCS_SIZE":"LARGE","TLE_LINE2":"2 53985  53.2171  30.2674 0001540  73.2690 286.8471 15.08849556 14057","ECCENTRICITY":"0.00015400","MEAN_MOTION_DOT":"-0.00000075","BSTAR":"0.00001335300000","SITE":"AFWTR","ELEMENT_SET_NO":"999","LAUNCH_DATE":"2022-10-05","EPHEMERIS_TYPE":"0","OBJECT_TYPE":"PAYLOAD","INCLINATION":"53.2171","GP_ID":"222066859","PERIAPSIS":"538.651","COUNTRY_CODE":"US"},{"MEAN_ELEMENT_THEORY":"SGP4","FILE":"3729873","SEMIMAJOR_AXIS":"6913.347","APOAPSIS":"536.433","REF_FRAME":"TEME","TLE_LINE1":"1 53986U 22125Y   23002.91667824 -.00921375  00000-0 -60085-1 0  9992","ARG_OF_PERICENTER":"47.8130","CLASSIFICATION_TYPE":"U","MEAN_MOTION":"15.10324462","EPOCH":"2023-01-02T22:00:00.999936","NORAD_CAT_ID":"53986","DECAY_DATE":null,"PERIOD":"95.344","OBJECT_NAME":"STARLINK-5119","OBJECT_ID":"2022-125Y","MEAN_ANOMALY":"150.1749","CENTER_NAME":"EARTH","GP_ID":"222067084","COUNTRY_CODE":"US","PERIAPSIS":"533.991","OBJECT_TYPE":"PAYLOAD","EPHEMERIS_TYPE":"0","INCLINATION":"53.2172","ELEMENT_SET_NO":"999","LAUNCH_DATE":"2022-10-05","SITE":"AFWTR","BSTAR":"-0.06008500000000","TLE_LINE2":"2 53986  53.2172  19.2004 0001766  47.8130 150.1749 15.10324462  1301","MEAN_MOTION_DOT":"-0.00921375","ECCENTRICITY":"0.00017660","TIME_SYSTEM":"UTC","RCS_SIZE":"LARGE","RA_OF_ASC_NODE":"19.2004","REV_AT_EPOCH":"130","MEAN_MOTION_DDOT":"0.0000000000000"}];
